{
  "type": "FeatureCollection",
  "features": [
    {
      "type": "Feature",
      "properties": {
        "norad_id": 66661,
        "name": "SNUGLITE-III",
        "group": "last-30-days",
        "lat": -43.28966965381632,
        "lon": -64.70804600709289,
        "alt_km": 594.2311962724289,
        "timestamp": "2025-12-26T22:28:04.496618+00:00",
        "meta_object_name": "SNUGLITE-III",
        "meta_object_id": "2025-274M",
        "meta_epoch": "2025-12-26T17:50:19.972608",
        "meta_mean_motion": 14.9316814,
        "meta_eccentricity": 0.0013493,
        "meta_inclination": 97.7402,
        "meta_ra_of_asc_node": 287.7409,
        "meta_arg_of_pericenter": 230.0492,
        "meta_mean_anomaly": 129.9543,
        "meta_ephemeris_type": 0,
        "meta_classification_type": "U",
        "meta_norad_cat_id": 66661,
        "meta_element_set_no": 999,
        "meta_rev_at_epoch": 449,
        "meta_bstar": 0.0002994,
        "meta_mean_motion_dot": 3.074e-05,
        "meta_mean_motion_ddot": 0,
        "tle_line1": "1 66661U 25274M   25360.74328672  .00003074  00000+0  29940-3 0  9990",
        "tle_line2": "2 66661  97.7402 287.7409 0013493 230.0492 129.9543 14.93168140  4490"
      },
      "geometry": {
        "type": "Point",
        "coordinates": [
          -64.70804600709289,
          -43.28966965381632
        ]
      }
    },
    {
      "type": "Feature",
      "properties": {
        "norad_id": 66662,
        "name": "2025-274N",
        "group": "last-30-days",
        "lat": -37.22667941299642,
        "lon": -66.1347100452876,
        "alt_km": 594.847556232995,
        "timestamp": "2025-12-26T22:28:04.496628+00:00",
        "meta_object_name": "2025-274N",
        "meta_object_id": "2025-274N",
        "meta_epoch": "2025-12-26T17:48:41.424768",
        "meta_mean_motion": 14.93224723,
        "meta_eccentricity": 0.0013928,
        "meta_inclination": 97.7402,
        "meta_ra_of_asc_node": 287.7429,
        "meta_arg_of_pericenter": 229.8114,
        "meta_mean_anomaly": 130.1887,
        "meta_ephemeris_type": 0,
        "meta_classification_type": "U",
        "meta_norad_cat_id": 66662,
        "meta_element_set_no": 999,
        "meta_rev_at_epoch": 449,
        "meta_bstar": 0.00030909,
        "meta_mean_motion_dot": 3.18e-05,
        "meta_mean_motion_ddot": 0,
        "tle_line1": "1 66662U 25274N   25360.74214612  .00003180  00000+0  30909-3 0  9994",
        "tle_line2": "2 66662  97.7402 287.7429 0013928 229.8114 130.1887 14.93224723  4498"
      },
      "geometry": {
        "type": "Point",
        "coordinates": [
          -66.1347100452876,
          -37.22667941299642
        ]
      }
    },
    {
      "type": "Feature",
      "properties": {
        "norad_id": 66663,
        "name": "KSLV-II R/B",
        "group": "last-30-days",
        "lat": 61.8031649639691,
        "lon": -86.55299549041952,
        "alt_km": 605.078061361588,
        "timestamp": "2025-12-26T22:28:04.496640+00:00",
        "meta_object_name": "KSLV-II R/B",
        "meta_object_id": "2025-274P",
        "meta_epoch": "2025-12-23T05:59:25.426176",
        "meta_mean_motion": 14.97536982,
        "meta_eccentricity": 0.00600006,
        "meta_inclination": 97.7435,
        "meta_ra_of_asc_node": 284.4956,
        "meta_arg_of_pericenter": 282.7951,
        "meta_mean_anomaly": 76.657,
        "meta_ephemeris_type": 0,
        "meta_classification_type": "U",
        "meta_norad_cat_id": 66663,
        "meta_element_set_no": 999,
        "meta_rev_at_epoch": 398,
        "meta_bstar": 0.0011394408,
        "meta_mean_motion_dot": 0.00013749,
        "meta_mean_motion_ddot": 0,
        "tle_line1": "1 66663U 25274P   25357.24959984  .00013749  00000+0  11394-2 0  9992",
        "tle_line2": "2 66663  97.7435 284.4956 0060000 282.7951  76.6570 14.97536982  3987"
      },
      "geometry": {
        "type": "Point",
        "coordinates": [
          -86.55299549041952,
          61.8031649639691
        ]
      }
    },
    {
      "type": "Feature",
      "properties": {
        "norad_id": 66664,
        "name": "SOYUZ-MS 28",
        "group": "last-30-days",
        "lat": 50.78917352696726,
        "lon": 148.34044567087307,
        "alt_km": 411.6841318161805,
        "timestamp": "2025-12-26T22:28:04.496651+00:00",
        "meta_object_name": "SOYUZ-MS 28",
        "meta_object_id": "2025-275A",
        "meta_epoch": "2025-12-26T12:50:01.192992",
        "meta_mean_motion": 15.49844261,
        "meta_eccentricity": 0.0003231,
        "meta_inclination": 51.632,
        "meta_ra_of_asc_node": 74.1581,
        "meta_arg_of_pericenter": 305.5588,
        "meta_mean_anomaly": 54.5099,
        "meta_ephemeris_type": 0,
        "meta_classification_type": "U",
        "meta_norad_cat_id": 66664,
        "meta_element_set_no": 999,
        "meta_rev_at_epoch": 458,
        "meta_bstar": 0.00025382,
        "meta_mean_motion_dot": 0.00013978,
        "meta_mean_motion_ddot": 0,
        "tle_line1": "1 66664U 25275A   25360.53473603  .00013978  00000+0  25382-3 0  9996",
        "tle_line2": "2 66664  51.6320  74.1581 0003231 305.5588  54.5099 15.49844261  4589"
      },
      "geometry": {
        "type": "Point",
        "coordinates": [
          148.34044567087307,
          50.78917352696726
        ]
      }
    },
    {
      "type": "Feature",
      "properties": {
        "norad_id": 66666,
        "name": "FORMOSAT-8A",
        "group": "last-30-days",
        "lat": -11.173277005349446,
        "lon": -108.85564448153559,
        "alt_km": 567.3291512477299,
        "timestamp": "2025-12-26T22:28:04.496662+00:00",
        "meta_object_name": "FORMOSAT-8A",
        "meta_object_id": "2025-276A",
        "meta_epoch": "2025-12-26T15:12:58.247136",
        "meta_mean_motion": 15.00368206,
        "meta_eccentricity": 0.0004108,
        "meta_inclination": 97.6575,
        "meta_ra_of_asc_node": 72.3697,
        "meta_arg_of_pericenter": 182.2215,
        "meta_mean_anomaly": 177.8991,
        "meta_ephemeris_type": 0,
        "meta_classification_type": "U",
        "meta_norad_cat_id": 66666,
        "meta_element_set_no": 999,
        "meta_rev_at_epoch": 417,
        "meta_bstar": 0.00033092,
        "meta_mean_motion_dot": 4.097e-05,
        "meta_mean_motion_ddot": 0,
        "tle_line1": "1 66666U 25276A   25360.63400749  .00004097  00000+0  33092-3 0  9990",
        "tle_line2": "2 66666  97.6575  72.3697 0004108 182.2215 177.8991 15.00368206  4174"
      },
      "geometry": {
        "type": "Point",
        "coordinates": [
          -108.85564448153559,
          -11.173277005349446
        ]
      }
    },
    {
      "type": "Feature",
      "properties": {
        "norad_id": 66667,
        "name": "PELICAN-5",
        "group": "last-30-days",
        "lat": 48.85338478167335,
        "lon": -98.93342718226143,
        "alt_km": 507.9454049171027,
        "timestamp": "2025-12-26T22:28:04.496675+00:00",
        "meta_object_name": "PELICAN-5",
        "meta_object_id": "2025-276B",
        "meta_epoch": "2025-12-26T15:33:53.875008",
        "meta_mean_motion": 15.17632934,
        "meta_eccentricity": 0.0002467,
        "meta_inclination": 97.4406,
        "meta_ra_of_asc_node": 72.1822,
        "meta_arg_of_pericenter": 197.9598,
        "meta_mean_anomaly": 162.1549,
        "meta_ephemeris_type": 0,
        "meta_classification_type": "U",
        "meta_norad_cat_id": 66667,
        "meta_element_set_no": 999,
        "meta_rev_at_epoch": 423,
        "meta_bstar": 0.00044436,
        "meta_mean_motion_dot": 8.878e-05,
        "meta_mean_motion_ddot": 0,
        "tle_line1": "1 66667U 25276B   25360.64854022  .00008878  00000+0  44436-3 0  9994",
        "tle_line2": "2 66667  97.4406  72.1822 0002467 197.9598 162.1549 15.17632934  4230"
      },
      "geometry": {
        "type": "Point",
        "coordinates": [
          -98.93342718226143,
          48.85338478167335
        ]
      }
    },
    {
      "type": "Feature",
      "properties": {
        "norad_id": 66668,
        "name": "TRANSPORTER-15C",
        "group": "last-30-days",
        "lat": 71.35480651241815,
        "lon": 49.62698608779367,
        "alt_km": 504.03023164157,
        "timestamp": "2025-12-26T22:28:04.496686+00:00",
        "meta_object_name": "TRANSPORTER-15C",
        "meta_object_id": "2025-276C",
        "meta_epoch": "2025-12-26T12:40:51.383136",
        "meta_mean_motion": 15.21988406,
        "meta_eccentricity": 0.0016178,
        "meta_inclination": 97.4332,
        "meta_ra_of_asc_node": 71.9879,
        "meta_arg_of_pericenter": 258.9437,
        "meta_mean_anomaly": 100.9979,
        "meta_ephemeris_type": 0,
        "meta_classification_type": "U",
        "meta_norad_cat_id": 66668,
        "meta_element_set_no": 999,
        "meta_rev_at_epoch": 421,
        "meta_bstar": 0.00071782,
        "meta_mean_motion_dot": 0.00016393,
        "meta_mean_motion_ddot": 0,
        "tle_line1": "1 66668U 25276C   25360.52837249  .00016393  00000+0  71782-3 0  9999",
        "tle_line2": "2 66668  97.4332  71.9879 0016178 258.9437 100.9979 15.21988406  4210"
      },
      "geometry": {
        "type": "Point",
        "coordinates": [
          49.62698608779367,
          71.35480651241815
        ]
      }
    }
  ]
}